start=new Date('2023-04-19T00:00:00.000Z').valueOf();
sats=[{"MEAN_MOTION":"15.01259325","RA_OF_ASC_NODE":"170.6558","PERIOD":"95.919","CLASSIFICATION_TYPE":"U","MEAN_MOTION_DDOT":"0.0000000000000","RCS_SIZE":"LARGE","INCLINATION":"97.6539","GP_ID":"230331173","DECAY_DATE":null,"REV_AT_EPOCH":"4127","COUNTRY_CODE":"US","ARG_OF_PERICENTER":"236.8379","CENTER_NAME":"EARTH","ELEMENT_SET_NO":"999","EPOCH":"2023-04-18T17:46:51.796992","NORAD_CAT_ID":"53189","APOAPSIS":"564.941","OBJECT_ID":"2022-084A","MEAN_ELEMENT_THEORY":"SGP4","REF_FRAME":"TEME","MEAN_ANOMALY":"123.2579","PERIAPSIS":"561.087","SEMIMAJOR_AXIS":"6941.149","SITE":"AFWTR","OBJECT_NAME":"STARLINK-4391","ECCENTRICITY":"0.00027760","BSTAR":"-0.00001247400000","FILE":"3889987","OBJECT_TYPE":"PAYLOAD","TIME_SYSTEM":"UTC","TLE_LINE2":"2 53189  97.6539 170.6558 0002776 236.8379 123.2579 15.01259325 41275","TLE_LINE1":"1 53189U 22084A   23108.74087728 -.00000219  00000-0 -12474-4 0  9995","MEAN_MOTION_DOT":"-0.00000219","LAUNCH_DATE":"2022-07-22","EPHEMERIS_TYPE":"0"},{"GP_ID":"230332422","DECAY_DATE":null,"ARG_OF_PERICENTER":"97.2904","CENTER_NAME":"EARTH","REV_AT_EPOCH":"4126","COUNTRY_CODE":"US","EPOCH":"2023-04-18T16:53:54.851712","ELEMENT_SET_NO":"999","APOAPSIS":"564.251","NORAD_CAT_ID":"53190","RA_OF_ASC_NODE":"170.6318","MEAN_MOTION":"15.01250754","CLASSIFICATION_TYPE":"U","PERIOD":"95.920","INCLINATION":"97.6537","RCS_SIZE":"LARGE","MEAN_MOTION_DDOT":"0.0000000000000","BSTAR":"0.00029459000000","TIME_SYSTEM":"UTC","TLE_LINE2":"2 53190  97.6537 170.6318 0001744  97.2904 262.8518 15.01250754 41265","FILE":"3889987","OBJECT_TYPE":"PAYLOAD","MEAN_MOTION_DOT":"0.00003726","LAUNCH_DATE":"2022-07-22","TLE_LINE1":"1 53190U 22084B   23108.70410708  .00003726  00000-0  29459-3 0  9995","EPHEMERIS_TYPE":"0","MEAN_ANOMALY":"262.8518","OBJECT_ID":"2022-084B","MEAN_ELEMENT_THEORY":"SGP4","REF_FRAME":"TEME","SEMIMAJOR_AXIS":"6941.175","ECCENTRICITY":"0.00017440","SITE":"AFWTR","OBJECT_NAME":"STARLINK-4332","PERIAPSIS":"561.830"},{"SEMIMAJOR_AXIS":"6941.154","SITE":"AFWTR","OBJECT_NAME":"STARLINK-4369","ECCENTRICITY":"0.00034090","PERIAPSIS":"560.653","MEAN_ANOMALY":"128.4582","OBJECT_ID":"2022-084C","MEAN_ELEMENT_THEORY":"SGP4","REF_FRAME":"TEME","MEAN_MOTION_DOT":"0.00000680","LAUNCH_DATE":"2022-07-22","TLE_LINE1":"1 53191U 22084C   23108.73532308  .00000680  00000-0  57532-4 0  9990","EPHEMERIS_TYPE":"0","BSTAR":"0.00005753200000","TLE_LINE2":"2 53191  97.6549 170.6497 0003409 231.6336 128.4582 15.01257525 41261","TIME_SYSTEM":"UTC","FILE":"3889987","OBJECT_TYPE":"PAYLOAD","RCS_SIZE":"LARGE","MEAN_MOTION_DDOT":"0.0000000000000","INCLINATION":"97.6549","RA_OF_ASC_NODE":"170.6497","MEAN_MOTION":"15.01257525","CLASSIFICATION_TYPE":"U","PERIOD":"95.920","EPOCH":"2023-04-18T17:38:51.914112","ELEMENT_SET_NO":"999","APOAPSIS":"565.386","NORAD_CAT_ID":"53191","GP_ID":"230332670","DECAY_DATE":null,"ARG_OF_PERICENTER":"231.6336","CENTER_NAME":"EARTH","REV_AT_EPOCH":"4126","COUNTRY_CODE":"US"},{"BSTAR":"-0.00001098900000","TIME_SYSTEM":"UTC","TLE_LINE2":"2 53192  97.6569 170.6491 0002758 215.0645 145.0398 15.01273967 41261","OBJECT_TYPE":"PAYLOAD","FILE":"3889987","LAUNCH_DATE":"2022-07-22","MEAN_MOTION_DOT":"-0.00000200","TLE_LINE1":"1 53192U 22084D   23108.73346924 -.00000200  00000-0 -10989-4 0  9993","EPHEMERIS_TYPE":"0","MEAN_ANOMALY":"145.0398","REF_FRAME":"TEME","OBJECT_ID":"2022-084D","MEAN_ELEMENT_THEORY":"SGP4","ECCENTRICITY":"0.00027580","SITE":"AFWTR","OBJECT_NAME":"STARLINK-4375","SEMIMAJOR_AXIS":"6941.104","PERIAPSIS":"561.054","DECAY_DATE":null,"GP_ID":"230330925","CENTER_NAME":"EARTH","ARG_OF_PERICENTER":"215.0645","COUNTRY_CODE":"US","REV_AT_EPOCH":"4126","EPOCH":"2023-04-18T17:36:11.742336","ELEMENT_SET_NO":"999","APOAPSIS":"564.883","NORAD_CAT_ID":"53192","RA_OF_ASC_NODE":"170.6491","MEAN_MOTION":"15.01273967","CLASSIFICATION_TYPE":"U","PERIOD":"95.919","MEAN_MOTION_DDOT":"0.0000000000000","RCS_SIZE":"LARGE","INCLINATION":"97.6569"},{"LAUNCH_DATE":"2022-07-22","MEAN_MOTION_DOT":"0.00000556","TLE_LINE1":"1 53193U 22084E   23108.73902577  .00000556  00000-0  47858-4 0  9993","EPHEMERIS_TYPE":"0","BSTAR":"0.00004785800000","TIME_SYSTEM":"UTC","TLE_LINE2":"2 53193  97.6542 170.6532 0002852 246.3312 113.7613 15.01258517 41279","OBJECT_TYPE":"PAYLOAD","FILE":"3889987","OBJECT_NAME":"STARLINK-4351","SITE":"AFWTR","ECCENTRICITY":"0.00028520","SEMIMAJOR_AXIS":"6941.151","PERIAPSIS":"561.037","MEAN_ANOMALY":"113.7613","REF_FRAME":"TEME","OBJECT_ID":"2022-084E","MEAN_ELEMENT_THEORY":"SGP4","EPOCH":"2023-04-18T17:44:11.826528","ELEMENT_SET_NO":"999","APOAPSIS":"564.996","NORAD_CAT_ID":"53193","DECAY_DATE":null,"GP_ID":"230331672","CENTER_NAME":"EARTH","ARG_OF_PERICENTER":"246.3312","COUNTRY_CODE":"US","REV_AT_EPOCH":"4127","RCS_SIZE":"LARGE","INCLINATION":"97.6542","MEAN_MOTION_DDOT":"0.0000000000000","RA_OF_ASC_NODE":"170.6532","MEAN_MOTION":"15.01258517","CLASSIFICATION_TYPE":"U","PERIOD":"95.920"},{"TLE_LINE1":"1 53194U 22084F   23108.73717341  .00001224  00000-0  99849-4 0  9997","MEAN_MOTION_DOT":"0.00001224","LAUNCH_DATE":"2022-07-22","EPHEMERIS_TYPE":"0","BSTAR":"0.00009984900000","FILE":"3889987","OBJECT_TYPE":"PAYLOAD","TIME_SYSTEM":"UTC","TLE_LINE2":"2 53194  97.6545 170.6515 0003432 248.3129 111.7730 15.01256658 41268","PERIAPSIS":"560.640","SEMIMAJOR_AXIS":"6941.157","SITE":"AFWTR","ECCENTRICITY":"0.00034320","OBJECT_NAME":"STARLINK-4382","MEAN_ELEMENT_THEORY":"SGP4","OBJECT_ID":"2022-084F","REF_FRAME":"TEME","MEAN_ANOMALY":"111.7730","ELEMENT_SET_NO":"999","EPOCH":"2023-04-18T17:41:31.782624","NORAD_CAT_ID":"53194","APOAPSIS":"565.404","DECAY_DATE":null,"GP_ID":"230331923","REV_AT_EPOCH":"4126","COUNTRY_CODE":"US","ARG_OF_PERICENTER":"248.3129","CENTER_NAME":"EARTH","RCS_SIZE":"LARGE","INCLINATION":"97.6545","MEAN_MOTION_DDOT":"0.0000000000000","MEAN_MOTION":"15.01256658","RA_OF_ASC_NODE":"170.6515","PERIOD":"95.920","CLASSIFICATION_TYPE":"U"},{"MEAN_MOTION_DDOT":"0.0000000000000","RCS_SIZE":"LARGE","INCLINATION":"97.6551","RA_OF_ASC_NODE":"170.6486","MEAN_MOTION":"15.01257492","CLASSIFICATION_TYPE":"U","PERIOD":"95.920","EPOCH":"2023-04-18T17:33:53.210304","ELEMENT_SET_NO":"999","APOAPSIS":"564.977","NORAD_CAT_ID":"53195","GP_ID":"230332171","DECAY_DATE":null,"CENTER_NAME":"EARTH","ARG_OF_PERICENTER":"228.5140","COUNTRY_CODE":"US","REV_AT_EPOCH":"4126","SITE":"AFWTR","ECCENTRICITY":"0.00028200","OBJECT_NAME":"STARLINK-4404","SEMIMAJOR_AXIS":"6941.155","PERIAPSIS":"561.062","MEAN_ANOMALY":"131.5842","REF_FRAME":"TEME","OBJECT_ID":"2022-084G","MEAN_ELEMENT_THEORY":"SGP4","LAUNCH_DATE":"2022-07-22","MEAN_MOTION_DOT":"0.00001035","TLE_LINE1":"1 53195U 22084G   23108.73186586  .00001035  00000-0  85146-4 0  9994","EPHEMERIS_TYPE":"0","BSTAR":"0.00008514600000","TIME_SYSTEM":"UTC","TLE_LINE2":"2 53195  97.6551 170.6486 0002820 228.5140 131.5842 15.01257492 41267","OBJECT_TYPE":"PAYLOAD","FILE":"3889987"},{"PERIAPSIS":"561.044","SEMIMAJOR_AXIS":"6941.144","SITE":"AFWTR","ECCENTRICITY":"0.00028310","OBJECT_NAME":"STARLINK-4407","OBJECT_ID":"2022-084H","MEAN_ELEMENT_THEORY":"SGP4","REF_FRAME":"TEME","MEAN_ANOMALY":"162.1171","TLE_LINE1":"1 53196U 22084H   23108.73371513  .00001015  00000-0  83579-4 0  9997","MEAN_MOTION_DOT":"0.00001015","LAUNCH_DATE":"2022-07-22","EPHEMERIS_TYPE":"0","BSTAR":"0.00008357900000","FILE":"3889987","OBJECT_TYPE":"PAYLOAD","TLE_LINE2":"2 53196  97.6548 170.6490 0002831 197.9953 162.1171 15.01260859 41549","TIME_SYSTEM":"UTC","RCS_SIZE":"LARGE","MEAN_MOTION_DDOT":"0.0000000000000","INCLINATION":"97.6548","MEAN_MOTION":"15.01260859","RA_OF_ASC_NODE":"170.6490","PERIOD":"95.919","CLASSIFICATION_TYPE":"U","ELEMENT_SET_NO":"999","EPOCH":"2023-04-18T17:36:32.987232","NORAD_CAT_ID":"53196","APOAPSIS":"564.974","GP_ID":"230331425","DECAY_DATE":null,"REV_AT_EPOCH":"4154","COUNTRY_CODE":"US","ARG_OF_PERICENTER":"197.9953","CENTER_NAME":"EARTH"},{"MEAN_MOTION_DDOT":"0.0000000000000","RCS_SIZE":"LARGE","INCLINATION":"97.6574","RA_OF_ASC_NODE":"170.6462","MEAN_MOTION":"15.01257812","CLASSIFICATION_TYPE":"U","PERIOD":"95.920","EPOCH":"2023-04-18T17:28:12.371808","ELEMENT_SET_NO":"999","APOAPSIS":"564.700","NORAD_CAT_ID":"53197","GP_ID":"230331174","DECAY_DATE":null,"ARG_OF_PERICENTER":"221.2572","CENTER_NAME":"EARTH","REV_AT_EPOCH":"4088","COUNTRY_CODE":"US","SEMIMAJOR_AXIS":"6941.154","SITE":"AFWTR","ECCENTRICITY":"0.00024220","OBJECT_NAME":"STARLINK-4403","PERIAPSIS":"561.337","MEAN_ANOMALY":"138.8469","MEAN_ELEMENT_THEORY":"SGP4","OBJECT_ID":"2022-084J","REF_FRAME":"TEME","MEAN_MOTION_DOT":"0.00000734","LAUNCH_DATE":"2022-07-22","TLE_LINE1":"1 53197U 22084J   23108.72792097  .00000734  00000-0  61757-4 0  9992","EPHEMERIS_TYPE":"0","BSTAR":"0.00006175700000","TLE_LINE2":"2 53197  97.6574 170.6462 0002422 221.2572 138.8469 15.01257812 40883","TIME_SYSTEM":"UTC","FILE":"3889987","OBJECT_TYPE":"PAYLOAD"},{"EPHEMERIS_TYPE":"0","LAUNCH_DATE":"2022-07-22","MEAN_MOTION_DOT":"0.00000902","TLE_LINE1":"1 53198U 22084K   23108.73161918  .00000902  00000-0  74781-4 0  9994","TIME_SYSTEM":"UTC","TLE_LINE2":"2 53198  97.6557 170.6478 0003365 217.9942 142.1045 15.01261677 41548","OBJECT_TYPE":"PAYLOAD","FILE":"3889987","BSTAR":"0.00007478100000","SITE":"AFWTR","ECCENTRICITY":"0.00033650","OBJECT_NAME":"STARLINK-4385","SEMIMAJOR_AXIS":"6941.142","PERIAPSIS":"560.671","MEAN_ANOMALY":"142.1045","REF_FRAME":"TEME","OBJECT_ID":"2022-084K","MEAN_ELEMENT_THEORY":"SGP4","APOAPSIS":"565.342","NORAD_CAT_ID":"53198","EPOCH":"2023-04-18T17:33:31.897152","ELEMENT_SET_NO":"999","CENTER_NAME":"EARTH","ARG_OF_PERICENTER":"217.9942","COUNTRY_CODE":"US","REV_AT_EPOCH":"4154","DECAY_DATE":null,"GP_ID":"230332423","RCS_SIZE":"LARGE","INCLINATION":"97.6557","MEAN_MOTION_DDOT":"0.0000000000000","CLASSIFICATION_TYPE":"U","PERIOD":"95.919","RA_OF_ASC_NODE":"170.6478","MEAN_MOTION":"15.01261677"}];
